{
    "type": "address",
    "key": "addr",
    "keys": [
        "addr:block_number",
        "addr:city",
        "addr:conscriptionnumber",
        "addr:county",
        "addr:country",
        "addr:district",
        "addr:floor",
        "addr:hamlet",
        "addr:housename",
        "addr:housenumber",
        "addr:neighbourhood",
        "addr:place",
        "addr:postcode",
        "addr:province",
        "addr:quarter",
        "addr:state",
        "addr:street",
        "addr:subdistrict",
        "addr:suburb",
        "addr:unit"
    ],
    "label": "Address",
    "strings": {
        "types": {
            "addr:block_number": "Block Number",
            "addr:city": "City",
            "addr:conscriptionnumber": "Conscription Number",
            "addr:country": "Country",
            "addr:county": "County",
            "addr:district": "District",
            "addr:floor": "Floor",
            "addr:hamlet": "Hamlet",
            "addr:housename": "Housename",
            "addr:housenumber": "Housenumber",
            "addr:neighbourhood": "Neighbourhood",
            "addr:place": "Place",
            "addr:postcode": "Postcode",
            "addr:province": "Province",
            "addr:quarter": "Quarter",
            "addr:state": "State",
            "addr:street": "Street",
            "addr:subdistrict": "Subdistrict",
            "addr:suburb": "Suburb",
            "addr:unit": "Unit"
        },
        "placeholders": {
            "block_number": "Block Number",
            "block_number!jp": "Block No.",
            "city": "City",
            "city!cn": "City/Prefecture/League",
            "city!jp": "City/Town/Village/Tokyo Special Ward",
            "city!vn": "City/Town",
            "conscriptionnumber": "123",
            "country": "Country",
            "county": "County",
            "county!jp": "District",
            "district": "District",
            "district!cn": "District/County/Banner",
            "district!vn": "Arrondissement/Town/District",
            "floor": "Floor",
            "hamlet": "Hamlet",
            "housename": "Housename",
            "housenumber": "123",
            "housenumber!jp": "Building No./Lot No.",
            "neighbourhood": "Neighbourhood",
            "neighbourhood!jp": "Chōme/Aza/Koaza",
            "place": "Place",
            "postcode": "Postcode",
            "province": "Province",
            "province!cn": "Province/Municipality/AR/SAR",
            "province!jp": "Prefecture",
            "quarter": "Quarter",
            "quarter!jp": "Ōaza/Machi",
            "state": "State",
            "street": "Street",
            "subdistrict": "Subdistrict",
            "subdistrict!vn": "Ward/Commune/Townlet",
            "suburb": "Suburb",
            "suburb!jp": "Ward",
            "unit": "Unit"
        }
    },
    "terms": [
        "location"
    ]
}
